GLOBALSTAR M084         
1 38040U 11080A   24263.44462287 -.00000059  00000+0  25174-3 0  9995
2 38040  51.9995 152.7144 0000688  94.0340  76.6889 12.62267636588478
GLOBALSTAR M080         
1 38041U 11080B   24263.17874167 -.00000061  00000+0  23613-3 0  9999
2 38041  52.0049 155.0355 0000943  94.7596  67.0444 12.62265692588566
GLOBALSTAR M082         
1 38042U 11080C   24263.81417611 -.00000070  00000+0  19119-3 0  9994
2 38042  52.0061 108.5179 0000694  40.9876  69.8520 12.62266873589529
GLOBALSTAR M092         
1 38043U 11080D   24263.56342566 -.00000087  00000+0  96331-4 0  9993
2 38043  52.0070 199.6429 0000410  70.3880 100.6012 12.62266100587775
GLOBALSTAR M090         
1 38044U 11080E   24263.84282958 -.00000081  00000+0  12701-3 0  9995
2 38044  51.9871 102.5870 0000753  63.0408  58.1018 12.62267905589512
GLOBALSTAR M086         
1 38045U 11080F   24263.78699428 -.00000078  00000+0  14576-3 0  9991
2 38045  51.9883 103.2865 0001740  80.3825  27.5654 12.62267291589514
GLOBALSTAR M097         
1 39072U 13005A   24263.63171861 -.00000102  00000+0  77290-5 0  9993
2 39072  52.0072  18.0329 0000855  81.2364 278.8600 12.62270461536640
GLOBALSTAR M093         
1 39073U 13005B   24263.60483078 -.00000084  00000+0  11044-3 0  9999
2 39073  51.9839  11.8480 0000778  77.8614 282.2340 12.62264191536599
